{
  "type": "FeatureCollection",
  "features": [
    {
      "type": "Feature",
      "properties": {
        "norad_id": 34637,
        "name": "COSMOS 2251 DEB",
        "group": "cosmos-2251-debris",
        "lat": 14.903353306728098,
        "lon": 95.84214918985941,
        "alt_km": 721.7926930162275,
        "timestamp": "2025-12-17T19:34:08.432535+00:00",
        "meta_object_name": "COSMOS 2251 DEB",
        "meta_object_id": "1993-036XJ",
        "meta_epoch": "2025-12-17T08:14:45.325824",
        "meta_mean_motion": 14.60139702,
        "meta_eccentricity": 0.00494129,
        "meta_inclination": 74.0497,
        "meta_ra_of_asc_node": 92.3762,
        "meta_arg_of_pericenter": 161.6508,
        "meta_mean_anomaly": 255.3247,
        "meta_ephemeris_type": 0,
        "meta_classification_type": "U",
        "meta_norad_cat_id": 34637,
        "meta_element_set_no": 999,
        "meta_rev_at_epoch": 88594,
        "meta_bstar": 0.00072816412,
        "meta_mean_motion_dot": 3.537e-05,
        "meta_mean_motion_ddot": 0,
        "tle_line1": "1 34637U 93036XJ  25351.34358016  .00003537  00000+0  72816-3 0  9994",
        "tle_line2": "2 34637  74.0497  92.3762 0049412 161.6508 255.3247 14.60139702885947"
      },
      "geometry": {
        "type": "Point",
        "coordinates": [
          95.84214918985941,
          14.903353306728098
        ]
      }
    },
    {
      "type": "Feature",
      "properties": {
        "norad_id": 34641,
        "name": "COSMOS 2251 DEB",
        "group": "cosmos-2251-debris",
        "lat": -37.232581893777315,
        "lon": -95.29994803058415,
        "alt_km": 732.8848938961319,
        "timestamp": "2025-12-17T19:34:08.432545+00:00",
        "meta_object_name": "COSMOS 2251 DEB",
        "meta_object_id": "1993-036XN",
        "meta_epoch": "2025-12-17T07:17:51.290304",
        "meta_mean_motion": 14.52038526,
        "meta_eccentricity": 0.00186227,
        "meta_inclination": 73.8399,
        "meta_ra_of_asc_node": 72.9447,
        "meta_arg_of_pericenter": 346.7249,
        "meta_mean_anomaly": 80.6831,
        "meta_ephemeris_type": 0,
        "meta_classification_type": "U",
        "meta_norad_cat_id": 34641,
        "meta_element_set_no": 999,
        "meta_rev_at_epoch": 88322,
        "meta_bstar": 0.00070849541,
        "meta_mean_motion_dot": 2.842e-05,
        "meta_mean_motion_ddot": 0,
        "tle_line1": "1 34641U 93036XN  25351.30406586  .00002842  00000+0  70850-3 0  9995",
        "tle_line2": "2 34641  73.8399  72.9447 0018622 346.7249  80.6831 14.52038526883221"
      },
      "geometry": {
        "type": "Point",
        "coordinates": [
          -95.29994803058415,
          -37.232581893777315
        ]
      }
    },
    {
      "type": "Feature",
      "properties": {
        "norad_id": 34642,
        "name": "COSMOS 2251 DEB",
        "group": "cosmos-2251-debris",
        "lat": 49.61128942213037,
        "lon": -9.285395989495651,
        "alt_km": 908.305874325566,
        "timestamp": "2025-12-17T19:34:08.432555+00:00",
        "meta_object_name": "COSMOS 2251 DEB",
        "meta_object_id": "1993-036XP",
        "meta_epoch": "2025-12-16T09:42:12.280320",
        "meta_mean_motion": 13.98984283,
        "meta_eccentricity": 0.0206859,
        "meta_inclination": 74.0048,
        "meta_ra_of_asc_node": 333.4536,
        "meta_arg_of_pericenter": 152.463,
        "meta_mean_anomaly": 358.4975,
        "meta_ephemeris_type": 0,
        "meta_classification_type": "U",
        "meta_norad_cat_id": 34642,
        "meta_element_set_no": 999,
        "meta_rev_at_epoch": 85344,
        "meta_bstar": 0.00063761054,
        "meta_mean_motion_dot": 1.084e-05,
        "meta_mean_motion_ddot": 0,
        "tle_line1": "1 34642U 93036XP  25350.40430880  .00001084  00000+0  63761-3 0  9990",
        "tle_line2": "2 34642  74.0048 333.4536 0206859 152.4630 358.4975 13.98984283853442"
      },
      "geometry": {
        "type": "Point",
        "coordinates": [
          -9.285395989495651,
          49.61128942213037
        ]
      }
    },
    {
      "type": "Feature",
      "properties": {
        "norad_id": 34671,
        "name": "COSMOS 2251 DEB",
        "group": "cosmos-2251-debris",
        "lat": -53.05660262620512,
        "lon": -33.113120018534694,
        "alt_km": 670.4923900065824,
        "timestamp": "2025-12-17T19:34:08.432565+00:00",
        "meta_object_name": "COSMOS 2251 DEB",
        "meta_object_id": "1993-036XR",
        "meta_epoch": "2025-12-16T20:09:54.832608",
        "meta_mean_motion": 14.6700884,
        "meta_eccentricity": 0.00111433,
        "meta_inclination": 74.026,
        "meta_ra_of_asc_node": 126.379,
        "meta_arg_of_pericenter": 207.2862,
        "meta_mean_anomaly": 280.8912,
        "meta_ephemeris_type": 0,
        "meta_classification_type": "U",
        "meta_norad_cat_id": 34671,
        "meta_element_set_no": 999,
        "meta_rev_at_epoch": 88357,
        "meta_bstar": 0.0012197079,
        "meta_mean_motion_dot": 6.819e-05,
        "meta_mean_motion_ddot": 0,
        "tle_line1": "1 34671U 93036XR  25350.84021797  .00006819  00000+0  12197-2 0  9990",
        "tle_line2": "2 34671  74.0260 126.3790 0011143 207.2862 280.8912 14.67008840883576"
      },
      "geometry": {
        "type": "Point",
        "coordinates": [
          -33.113120018534694,
          -53.05660262620512
        ]
      }
    },
    {
      "type": "Feature",
      "properties": {
        "norad_id": 34672,
        "name": "COSMOS 2251 DEB",
        "group": "cosmos-2251-debris",
        "lat": -35.70206320873186,
        "lon": 128.14069921824952,
        "alt_km": 790.8413806487379,
        "timestamp": "2025-12-17T19:34:08.432575+00:00",
        "meta_object_name": "COSMOS 2251 DEB",
        "meta_object_id": "1993-036XS",
        "meta_epoch": "2025-12-11T16:16:44.249952",
        "meta_mean_motion": 14.36406242,
        "meta_eccentricity": 0.00236356,
        "meta_inclination": 74.0334,
        "meta_ra_of_asc_node": 307.539,
        "meta_arg_of_pericenter": 19.6523,
        "meta_mean_anomaly": 155.1005,
        "meta_ephemeris_type": 0,
        "meta_classification_type": "U",
        "meta_norad_cat_id": 34672,
        "meta_element_set_no": 999,
        "meta_rev_at_epoch": 65162,
        "meta_bstar": 0.00043649208,
        "meta_mean_motion_dot": 1.257e-05,
        "meta_mean_motion_ddot": 0,
        "tle_line1": "1 34672U 93036XS  25345.67828993  .00001257  00000+0  43649-3 0  9997",
        "tle_line2": "2 34672  74.0334 307.5390 0023635  19.6523 155.1005 14.36406242651626"
      },
      "geometry": {
        "type": "Point",
        "coordinates": [
          128.14069921824952,
          -35.70206320873186
        ]
      }
    },
    {
      "type": "Feature",
      "properties": {
        "norad_id": 34678,
        "name": "COSMOS 2251 DEB",
        "group": "cosmos-2251-debris",
        "lat": -68.77869722241147,
        "lon": -51.01986562611328,
        "alt_km": 807.1547051727375,
        "timestamp": "2025-12-17T19:34:08.432585+00:00",
        "meta_object_name": "COSMOS 2251 DEB",
        "meta_object_id": "1993-036XY",
        "meta_epoch": "2025-12-17T01:46:11.095392",
        "meta_mean_motion": 14.30065802,
        "meta_eccentricity": 0.00245345,
        "meta_inclination": 74.0376,
        "meta_ra_of_asc_node": 357.8132,
        "meta_arg_of_pericenter": 45.5819,
        "meta_mean_anomaly": 22.2619,
        "meta_ephemeris_type": 0,
        "meta_classification_type": "U",
        "meta_norad_cat_id": 34678,
        "meta_element_set_no": 999,
        "meta_rev_at_epoch": 87441,
        "meta_bstar": 2.8237715e-05,
        "meta_mean_motion_dot": 4.7e-07,
        "meta_mean_motion_ddot": 0,
        "tle_line1": "1 34678U 93036XY  25351.07373953  .00000047  00000+0  28238-4 0  9999",
        "tle_line2": "2 34678  74.0376 357.8132 0024534  45.5819  22.2619 14.30065802874411"
      },
      "geometry": {
        "type": "Point",
        "coordinates": [
          -51.01986562611328,
          -68.77869722241147
        ]
      }
    },
    {
      "type": "Feature",
      "properties": {
        "norad_id": 34680,
        "name": "COSMOS 2251 DEB",
        "group": "cosmos-2251-debris",
        "lat": 42.57710663838113,
        "lon": 135.40879519560346,
        "alt_km": 691.7963237817812,
        "timestamp": "2025-12-17T19:34:08.432594+00:00",
        "meta_object_name": "COSMOS 2251 DEB",
        "meta_object_id": "1993-036YA",
        "meta_epoch": "2025-12-16T15:31:15.511584",
        "meta_mean_motion": 14.60667066,
        "meta_eccentricity": 0.00066114,
        "meta_inclination": 74.0425,
        "meta_ra_of_asc_node": 122.3971,
        "meta_arg_of_pericenter": 221.4971,
        "meta_mean_anomaly": 160.4979,
        "meta_ephemeris_type": 0,
        "meta_classification_type": "U",
        "meta_norad_cat_id": 34680,
        "meta_element_set_no": 999,
        "meta_rev_at_epoch": 88385,
        "meta_bstar": 0.00085538922,
        "meta_mean_motion_dot": 4.139e-05,
        "meta_mean_motion_ddot": 0,
        "tle_line1": "1 34680U 93036YA  25350.64670731  .00004139  00000+0  85539-3 0  9990",
        "tle_line2": "2 34680  74.0425 122.3971 0006611 221.4971 160.4979 14.60667066883850"
      },
      "geometry": {
        "type": "Point",
        "coordinates": [
          135.40879519560346,
          42.57710663838113
        ]
      }
    }
  ]
}